[{"OBJECT_NAME":"STARLINK-5262","OBJECT_ID":"2022-141BC","EPOCH":"2026-03-09T02:16:50.050272","MEAN_MOTION":15.08831755,"ECCENTRICITY":0.00012707,"INCLINATION":53.2185,"RA_OF_ASC_NODE":356.3971,"ARG_OF_PERICENTER":107.8011,"MEAN_ANOMALY":252.312,"EPHEMERIS_TYPE":0,"CLASSIFICATION_TYPE":"U","NORAD_CAT_ID":54207,"ELEMENT_SET_NO":999,"REV_AT_EPOCH":18591,"BSTAR":-4.3736485e-5,"MEAN_MOTION_DOT":-9.84e-6,"MEAN_MOTION_DDOT":0},{"OBJECT_NAME":"FENGYUN 1C DEB","OBJECT_ID":"1999-025DVA","EPOCH":"2026-03-08T04:27:49.439232","MEAN_MOTION":15.15496966,"ECCENTRICITY":0.00338373,"INCLINATION":98.8203,"RA_OF_ASC_NODE":206.4896,"ARG_OF_PERICENTER":4.2711,"MEAN_ANOMALY":355.88,"EPHEMERIS_TYPE":0,"CLASSIFICATION_TYPE":"U","NORAD_CAT_ID":36225,"ELEMENT_SET_NO":999,"REV_AT_EPOCH":68062,"BSTAR":0.0036229129,"MEAN_MOTION_DOT":0.00070122,"MEAN_MOTION_DDOT":0}]
